start=new Date('2023-06-10T00:00:00.000Z').valueOf();
sats=[{"PERIOD":"95.093","RCS_SIZE":"LARGE","CENTER_NAME":"EARTH","SEMIMAJOR_AXIS":"6901.203","ECCENTRICITY":"0.00019730","MEAN_MOTION_DOT":"-0.00860021","NORAD_CAT_ID":"56355","DECAY_DATE":null,"OBJECT_ID":"2023-058AQ","ELEMENT_SET_NO":"999","PERIAPSIS":"521.706","APOAPSIS":"524.429","OBJECT_NAME":"STARLINK-5533","BSTAR":"-0.05050300000000","FILE":"3929125","MEAN_MOTION_DDOT":"0.0000000000000","ARG_OF_PERICENTER":"88.9332","GP_ID":"233583569","SITE":"AFWTR","OBJECT_TYPE":"PAYLOAD","LAUNCH_DATE":"2023-04-27","MEAN_MOTION":"15.14312766","REV_AT_EPOCH":"130","RA_OF_ASC_NODE":"162.0121","EPOCH":"2023-06-09T20:00:01.000224","TLE_LINE1":"1 56355U 23058AQ  23160.83334491 -.00860021  00000-0 -50503-1 0  9992","CLASSIFICATION_TYPE":"U","MEAN_ELEMENT_THEORY":"SGP4","MEAN_ANOMALY":"104.9954","TIME_SYSTEM":"UTC","INCLINATION":"97.6549","EPHEMERIS_TYPE":"0","TLE_LINE2":"2 56355  97.6549 162.0121 0001973  88.9332 104.9954 15.14312766  1304","COUNTRY_CODE":"US","REF_FRAME":"TEME"},{"GP_ID":"233583182","SITE":"AFWTR","FILE":"3929125","BSTAR":"-0.05148800000000","MEAN_MOTION_DDOT":"0.0000000000000","ARG_OF_PERICENTER":"89.1459","LAUNCH_DATE":"2023-04-27","MEAN_MOTION":"15.14192834","REV_AT_EPOCH":"130","OBJECT_TYPE":"PAYLOAD","TLE_LINE1":"1 56356U 23058AR  23160.83334491 -.00872901  00000-0 -51488-1 0  9996","EPOCH":"2023-06-09T20:00:01.000224","CLASSIFICATION_TYPE":"U","MEAN_ELEMENT_THEORY":"SGP4","MEAN_ANOMALY":"95.7344","TIME_SYSTEM":"UTC","RA_OF_ASC_NODE":"162.0082","EPHEMERIS_TYPE":"0","TLE_LINE2":"2 56356  97.6549 162.0082 0002077  89.1459  95.7344 15.14192834  1302","COUNTRY_CODE":"US","REF_FRAME":"TEME","INCLINATION":"97.6549","SEMIMAJOR_AXIS":"6901.567","PERIOD":"95.100","CENTER_NAME":"EARTH","RCS_SIZE":"LARGE","NORAD_CAT_ID":"56356","MEAN_MOTION_DOT":"-0.00872901","ECCENTRICITY":"0.00020770","DECAY_DATE":null,"OBJECT_ID":"2023-058AR","ELEMENT_SET_NO":"999","PERIAPSIS":"521.999","OBJECT_NAME":"STARLINK-5535","APOAPSIS":"524.866"},{"MEAN_MOTION_DDOT":"0.0000000000000","FILE":"3929125","BSTAR":"-0.05031900000000","ARG_OF_PERICENTER":"87.8131","GP_ID":"233583245","SITE":"AFWTR","OBJECT_TYPE":"PAYLOAD","LAUNCH_DATE":"2023-04-27","REV_AT_EPOCH":"130","MEAN_MOTION":"15.14274864","RA_OF_ASC_NODE":"162.0109","EPOCH":"2023-06-09T20:00:01.000224","TLE_LINE1":"1 56357U 23058AS  23160.83334491 -.00856236  00000-0 -50319-1 0  9992","CLASSIFICATION_TYPE":"U","TIME_SYSTEM":"UTC","MEAN_ELEMENT_THEORY":"SGP4","MEAN_ANOMALY":"103.3649","INCLINATION":"97.6549","TLE_LINE2":"2 56357  97.6549 162.0109 0001919  87.8131 103.3649 15.14274864  1307","EPHEMERIS_TYPE":"0","REF_FRAME":"TEME","COUNTRY_CODE":"US","PERIOD":"95.095","RCS_SIZE":"LARGE","CENTER_NAME":"EARTH","SEMIMAJOR_AXIS":"6901.318","ECCENTRICITY":"0.00019190","MEAN_MOTION_DOT":"-0.00856236","NORAD_CAT_ID":"56357","OBJECT_ID":"2023-058AS","DECAY_DATE":null,"PERIAPSIS":"521.859","ELEMENT_SET_NO":"999","APOAPSIS":"524.507","OBJECT_NAME":"STARLINK-5538"},{"RA_OF_ASC_NODE":"162.0050","TIME_SYSTEM":"UTC","MEAN_ANOMALY":"91.0537","MEAN_ELEMENT_THEORY":"SGP4","TLE_LINE1":"1 56358U 23058AT  23160.83334491 -.00860911  00000-0 -50897-1 0  9999","CLASSIFICATION_TYPE":"U","EPOCH":"2023-06-09T20:00:01.000224","INCLINATION":"97.6549","REF_FRAME":"TEME","COUNTRY_CODE":"US","TLE_LINE2":"2 56358  97.6549 162.0050 0001987  86.8130  91.0537 15.14076542  1308","EPHEMERIS_TYPE":"0","ARG_OF_PERICENTER":"86.8130","MEAN_MOTION_DDOT":"0.0000000000000","FILE":"3929125","BSTAR":"-0.05089700000000","SITE":"AFWTR","GP_ID":"233583377","OBJECT_TYPE":"PAYLOAD","REV_AT_EPOCH":"130","MEAN_MOTION":"15.14076542","LAUNCH_DATE":"2023-04-27","ELEMENT_SET_NO":"999","PERIAPSIS":"522.414","OBJECT_ID":"2023-058AT","DECAY_DATE":null,"APOAPSIS":"525.157","OBJECT_NAME":"STARLINK-5482","CENTER_NAME":"EARTH","RCS_SIZE":"LARGE","PERIOD":"95.107","SEMIMAJOR_AXIS":"6901.921","ECCENTRICITY":"0.00019870","MEAN_MOTION_DOT":"-0.00860911","NORAD_CAT_ID":"56358"},{"RCS_SIZE":"LARGE","CENTER_NAME":"EARTH","PERIOD":"95.081","SEMIMAJOR_AXIS":"6900.621","ECCENTRICITY":"0.00019670","MEAN_MOTION_DOT":"-0.00858909","NORAD_CAT_ID":"56359","ELEMENT_SET_NO":"999","PERIAPSIS":"521.129","DECAY_DATE":null,"OBJECT_ID":"2023-058AU","APOAPSIS":"523.843","OBJECT_NAME":"STARLINK-5551","ARG_OF_PERICENTER":"93.7179","BSTAR":"-0.05016100000000","FILE":"3929125","MEAN_MOTION_DDOT":"0.0000000000000","SITE":"AFWTR","GP_ID":"233583310","OBJECT_TYPE":"PAYLOAD","MEAN_MOTION":"15.14504275","REV_AT_EPOCH":"130","LAUNCH_DATE":"2023-04-27","RA_OF_ASC_NODE":"162.0176","MEAN_ANOMALY":"112.9193","MEAN_ELEMENT_THEORY":"SGP4","TIME_SYSTEM":"UTC","TLE_LINE1":"1 56359U 23058AU  23160.83334491 -.00858909  00000-0 -50161-1 0  9998","CLASSIFICATION_TYPE":"U","EPOCH":"2023-06-09T20:00:01.000224","INCLINATION":"97.6549","COUNTRY_CODE":"US","REF_FRAME":"TEME","EPHEMERIS_TYPE":"0","TLE_LINE2":"2 56359  97.6549 162.0176 0001967  93.7179 112.9193 15.14504275  1306"},{"OBJECT_ID":"2023-058AV","DECAY_DATE":null,"PERIAPSIS":"521.427","ELEMENT_SET_NO":"999","OBJECT_NAME":"STARLINK-5549","APOAPSIS":"524.113","SEMIMAJOR_AXIS":"6900.905","PERIOD":"95.086","RCS_SIZE":"LARGE","CENTER_NAME":"EARTH","NORAD_CAT_ID":"56360","ECCENTRICITY":"0.00019460","MEAN_MOTION_DOT":"-0.00857431","CLASSIFICATION_TYPE":"U","TLE_LINE1":"1 56360U 23058AV  23160.83334491 -.00857431  00000-0 -50201-1 0  9994","EPOCH":"2023-06-09T20:00:01.000224","TIME_SYSTEM":"UTC","MEAN_ELEMENT_THEORY":"SGP4","MEAN_ANOMALY":"112.7162","RA_OF_ASC_NODE":"162.0149","TLE_LINE2":"2 56360  97.6549 162.0149 0001946  87.8074 112.7162 15.14410804  1301","EPHEMERIS_TYPE":"0","REF_FRAME":"TEME","COUNTRY_CODE":"US","INCLINATION":"97.6549","GP_ID":"233583442","SITE":"AFWTR","MEAN_MOTION_DDOT":"0.0000000000000","FILE":"3929125","BSTAR":"-0.05020100000000","ARG_OF_PERICENTER":"87.8074","LAUNCH_DATE":"2023-04-27","REV_AT_EPOCH":"130","MEAN_MOTION":"15.14410804","OBJECT_TYPE":"PAYLOAD"},{"APOAPSIS":"523.194","OBJECT_NAME":"STARLINK-5550","DECAY_DATE":null,"OBJECT_ID":"2023-058AW","ELEMENT_SET_NO":"999","PERIAPSIS":"520.495","MEAN_MOTION_DOT":"-0.00856315","ECCENTRICITY":"0.00019560","NORAD_CAT_ID":"56361","PERIOD":"95.067","CENTER_NAME":"EARTH","RCS_SIZE":"LARGE","SEMIMAJOR_AXIS":"6899.980","INCLINATION":"97.6548","EPHEMERIS_TYPE":"0","TLE_LINE2":"2 56361  97.6548 162.0237 0001956  90.4241 130.0675 15.14715444  1306","COUNTRY_CODE":"US","REF_FRAME":"TEME","RA_OF_ASC_NODE":"162.0237","TLE_LINE1":"1 56361U 23058AW  23160.83334491 -.00856315  00000-0 -49701-1 0  9998","EPOCH":"2023-06-09T20:00:01.000224","CLASSIFICATION_TYPE":"U","MEAN_ELEMENT_THEORY":"SGP4","MEAN_ANOMALY":"130.0675","TIME_SYSTEM":"UTC","OBJECT_TYPE":"PAYLOAD","LAUNCH_DATE":"2023-04-27","MEAN_MOTION":"15.14715444","REV_AT_EPOCH":"130","BSTAR":"-0.04970100000000","FILE":"3929125","MEAN_MOTION_DDOT":"0.0000000000000","ARG_OF_PERICENTER":"90.4241","GP_ID":"233583505","SITE":"AFWTR"},{"SITE":"AFWTR","GP_ID":"233583118","ARG_OF_PERICENTER":"91.8785","MEAN_MOTION_DDOT":"0.0000000000000","BSTAR":"-0.05000600000000","FILE":"3929125","REV_AT_EPOCH":"130","MEAN_MOTION":"15.14612202","LAUNCH_DATE":"2023-04-27","OBJECT_TYPE":"PAYLOAD","TIME_SYSTEM":"UTC","MEAN_ELEMENT_THEORY":"SGP4","MEAN_ANOMALY":"121.7770","TLE_LINE1":"1 56362U 23058AX  23160.83334491 -.00858870  00000-0 -50006-1 0  9997","CLASSIFICATION_TYPE":"U","EPOCH":"2023-06-09T20:00:01.000224","RA_OF_ASC_NODE":"162.0206","REF_FRAME":"TEME","COUNTRY_CODE":"US","TLE_LINE2":"2 56362  97.6548 162.0206 0001939  91.8785 121.7770 15.14612202  1303","EPHEMERIS_TYPE":"0","INCLINATION":"97.6548","SEMIMAJOR_AXIS":"6900.293","CENTER_NAME":"EARTH","RCS_SIZE":"LARGE","PERIOD":"95.074","NORAD_CAT_ID":"56362","MEAN_MOTION_DOT":"-0.00858870","ECCENTRICITY":"0.00019390","ELEMENT_SET_NO":"999","PERIAPSIS":"520.820","OBJECT_ID":"2023-058AX","DECAY_DATE":null,"OBJECT_NAME":"STARLINK-5972","APOAPSIS":"523.496"},{"SEMIMAJOR_AXIS":"6845.948","PERIOD":"93.953","RCS_SIZE":"LARGE","CENTER_NAME":"EARTH","NORAD_CAT_ID":"56374","ECCENTRICITY":"0.00013220","MEAN_MOTION_DOT":"-0.00955973","OBJECT_ID":"2023-061A","DECAY_DATE":null,"PERIAPSIS":"466.908","ELEMENT_SET_NO":"999","OBJECT_NAME":"STARLINK-6156","APOAPSIS":"468.718","GP_ID":"233583379","SITE":"AFETR","MEAN_MOTION_DDOT":"0.0000000000000","FILE":"3929125","BSTAR":"-0.03204000000000","ARG_OF_PERICENTER":"279.6663","LAUNCH_DATE":"2023-05-04","REV_AT_EPOCH":"130","MEAN_MOTION":"15.32683240","OBJECT_TYPE":"PAYLOAD","CLASSIFICATION_TYPE":"U","TLE_LINE1":"1 56374U 23061A   23160.83334491 -.00955973  00000-0 -32040-1 0  9994","EPOCH":"2023-06-09T20:00:01.000224","TIME_SYSTEM":"UTC","MEAN_ELEMENT_THEORY":"SGP4","MEAN_ANOMALY":"278.2397","RA_OF_ASC_NODE":"254.6572","TLE_LINE2":"2 56374  42.9965 254.6572 0001322 279.6663 278.2397 15.32683240  1306","EPHEMERIS_TYPE":"0","REF_FRAME":"TEME","COUNTRY_CODE":"US","INCLINATION":"42.9965"},{"MEAN_MOTION_DOT":"-0.00946517","ECCENTRICITY":"0.00013230","NORAD_CAT_ID":"56375","RCS_SIZE":"LARGE","CENTER_NAME":"EARTH","PERIOD":"93.917","SEMIMAJOR_AXIS":"6844.228","APOAPSIS":"466.998","OBJECT_NAME":"STARLINK-6158","PERIAPSIS":"465.187","ELEMENT_SET_NO":"999","DECAY_DATE":null,"OBJECT_ID":"2023-061B","OBJECT_TYPE":"PAYLOAD","MEAN_MOTION":"15.33260963","REV_AT_EPOCH":"130","LAUNCH_DATE":"2023-05-04","ARG_OF_PERICENTER":"275.1160","FILE":"3929125","BSTAR":"-0.03155400000000","MEAN_MOTION_DDOT":"0.0000000000000","SITE":"AFETR","GP_ID":"233583312","INCLINATION":"42.9967","COUNTRY_CODE":"US","REF_FRAME":"TEME","EPHEMERIS_TYPE":"0","TLE_LINE2":"2 56375  42.9967 254.6115 0001323 275.1160 301.4942 15.33260963  1305","RA_OF_ASC_NODE":"254.6115","MEAN_ANOMALY":"301.4942","MEAN_ELEMENT_THEORY":"SGP4","TIME_SYSTEM":"UTC","CLASSIFICATION_TYPE":"U","TLE_LINE1":"1 56375U 23061B   23160.83334491 -.00946517  00000-0 -31554-1 0  9998","EPOCH":"2023-06-09T20:00:01.000224"}];
